{
  "type": "FeatureCollection",
  "features": [
    {
      "type": "Feature",
      "properties": {
        "norad_id": 28054,
        "name": "DMSP 5D-3 F16 (USA 172)",
        "group": "weather",
        "lat": -80.13078482279565,
        "lon": 129.05518380260904,
        "alt_km": 847.3675771754679,
        "timestamp": "2025-12-23T05:02:11.666493+00:00",
        "meta_object_name": "DMSP 5D-3 F16 (USA 172)",
        "meta_object_id": "2003-048A",
        "meta_epoch": "2025-12-22T21:24:26.411904",
        "meta_mean_motion": 14.14427709,
        "meta_eccentricity": 0.00062613,
        "meta_inclination": 99.0038,
        "meta_ra_of_asc_node": 14.4285,
        "meta_arg_of_pericenter": 288.3521,
        "meta_mean_anomaly": 159.868,
        "meta_ephemeris_type": 0,
        "meta_classification_type": "U",
        "meta_norad_cat_id": 28054,
        "meta_element_set_no": 999,
        "meta_rev_at_epoch": 14456,
        "meta_bstar": 8.3155521e-05,
        "meta_mean_motion_dot": 1.14e-06,
        "meta_mean_motion_ddot": 0,
        "tle_line1": "1 28054U 03048A   25356.89197236  .00000114  00000+0  83156-4 0  9992",
        "tle_line2": "2 28054  99.0038  14.4285 0006261 288.3521 159.8680 14.14427709144564"
      },
      "geometry": {
        "type": "Point",
        "coordinates": [
          129.05518380260904,
          -80.13078482279565
        ]
      }
    },
    {
      "type": "Feature",
      "properties": {
        "norad_id": 28912,
        "name": "METEOSAT-9 (MSG-2)",
        "group": "weather",
        "lat": 3.61911873113831,
        "lon": -147.8086121677193,
        "alt_km": 35936.90377397417,
        "timestamp": "2025-12-23T05:02:11.666542+00:00",
        "meta_object_name": "METEOSAT-9 (MSG-2)",
        "meta_object_id": "2005-049B",
        "meta_epoch": "2025-12-22T18:31:08.664384",
        "meta_mean_motion": 1.00267705,
        "meta_eccentricity": 0.00617708,
        "meta_inclination": 8.9523,
        "meta_ra_of_asc_node": 55.8676,
        "meta_arg_of_pericenter": 281.9132,
        "meta_mean_anomaly": 76.5371,
        "meta_ephemeris_type": 0,
        "meta_classification_type": "U",
        "meta_norad_cat_id": 28912,
        "meta_element_set_no": 999,
        "meta_rev_at_epoch": 522,
        "meta_bstar": 0,
        "meta_mean_motion_dot": 1.44e-06,
        "meta_mean_motion_ddot": 0,
        "tle_line1": "1 28912U 05049B   25356.77162806  .00000144  00000+0  00000+0 0  9995",
        "tle_line2": "2 28912   8.9523  55.8676 0061770 281.9132  76.5371  1.00267705  5221"
      },
      "geometry": {
        "type": "Point",
        "coordinates": [
          -147.8086121677193,
          3.61911873113831
        ]
      }
    },
    {
      "type": "Feature",
      "properties": {
        "norad_id": 29522,
        "name": "DMSP 5D-3 F17 (USA 191)",
        "group": "weather",
        "lat": -44.26396324443469,
        "lon": 173.7589067344127,
        "alt_km": 843.1419647853972,
        "timestamp": "2025-12-23T05:02:11.666561+00:00",
        "meta_object_name": "DMSP 5D-3 F17 (USA 191)",
        "meta_object_id": "2006-050A",
        "meta_epoch": "2025-12-22T22:53:09.102048",
        "meta_mean_motion": 14.14923895,
        "meta_eccentricity": 0.00098416,
        "meta_inclination": 98.7391,
        "meta_ra_of_asc_node": 2.13,
        "meta_arg_of_pericenter": 194.2781,
        "meta_mean_anomaly": 165.8116,
        "meta_ephemeris_type": 0,
        "meta_classification_type": "U",
        "meta_norad_cat_id": 29522,
        "meta_element_set_no": 999,
        "meta_rev_at_epoch": 98749,
        "meta_bstar": 9.3286306e-05,
        "meta_mean_motion_dot": 1.37e-06,
        "meta_mean_motion_ddot": 0,
        "tle_line1": "1 29522U 06050A   25356.95357757  .00000137  00000+0  93286-4 0  9992",
        "tle_line2": "2 29522  98.7391   2.1300 0009841 194.2781 165.8116 14.14923895987490"
      },
      "geometry": {
        "type": "Point",
        "coordinates": [
          173.7589067344127,
          -44.26396324443469
        ]
      }
    },
    {
      "type": "Feature",
      "properties": {
        "norad_id": 32958,
        "name": "FENGYUN 3A",
        "group": "weather",
        "lat": 66.71375788963653,
        "lon": 137.28425416903178,
        "alt_km": 825.7758221914728,
        "timestamp": "2025-12-23T05:02:11.666575+00:00",
        "meta_object_name": "FENGYUN 3A",
        "meta_object_id": "2008-026A",
        "meta_epoch": "2025-12-22T20:03:12.943008",
        "meta_mean_motion": 14.19517515,
        "meta_eccentricity": 0.00076474,
        "meta_inclination": 98.6712,
        "meta_ra_of_asc_node": 296.1503,
        "meta_arg_of_pericenter": 277.7214,
        "meta_mean_anomaly": 82.3094,
        "meta_ephemeris_type": 0,
        "meta_classification_type": "U",
        "meta_norad_cat_id": 32958,
        "meta_element_set_no": 999,
        "meta_rev_at_epoch": 91038,
        "meta_bstar": 5.9361681e-05,
        "meta_mean_motion_dot": 8.2e-07,
        "meta_mean_motion_ddot": 0,
        "tle_line1": "1 32958U 08026A   25356.83556647  .00000082  00000+0  59362-4 0  9996",
        "tle_line2": "2 32958  98.6712 296.1503 0007647 277.7214  82.3094 14.19517515910388"
      },
      "geometry": {
        "type": "Point",
        "coordinates": [
          137.28425416903178,
          66.71375788963653
        ]
      }
    },
    {
      "type": "Feature",
      "properties": {
        "norad_id": 35491,
        "name": "GOES 14",
        "group": "weather",
        "lat": -0.6732338342001659,
        "lon": 51.20065492225018,
        "alt_km": 35837.04273951627,
        "timestamp": "2025-12-23T05:02:11.666589+00:00",
        "meta_object_name": "GOES 14",
        "meta_object_id": "2009-033A",
        "meta_epoch": "2025-12-22T14:19:32.756160",
        "meta_mean_motion": 1.00096971,
        "meta_eccentricity": 5.673e-05,
        "meta_inclination": 1.2278,
        "meta_ra_of_asc_node": 85.3054,
        "meta_arg_of_pericenter": 186.8554,
        "meta_mean_anomaly": 278.1544,
        "meta_ephemeris_type": 0,
        "meta_classification_type": "U",
        "meta_norad_cat_id": 35491,
        "meta_element_set_no": 999,
        "meta_rev_at_epoch": 482,
        "meta_bstar": 0,
        "meta_mean_motion_dot": 2.7e-07,
        "meta_mean_motion_ddot": 0,
        "tle_line1": "1 35491U 09033A   25356.59690690  .00000027  00000+0  00000+0 0  9999",
        "tle_line2": "2 35491   1.2278  85.3054 0000567 186.8554 278.1544  1.00096971  4822"
      },
      "geometry": {
        "type": "Point",
        "coordinates": [
          51.20065492225018,
          -0.6732338342001659
        ]
      }
    },
    {
      "type": "Feature",
      "properties": {
        "norad_id": 35951,
        "name": "DMSP 5D-3 F18 (USA 210)",
        "group": "weather",
        "lat": 80.55103095503972,
        "lon": -96.47064301079452,
        "alt_km": 830.3600577981815,
        "timestamp": "2025-12-23T05:02:11.666601+00:00",
        "meta_object_name": "DMSP 5D-3 F18 (USA 210)",
        "meta_object_id": "2009-057A",
        "meta_epoch": "2025-12-22T20:08:31.746912",
        "meta_mean_motion": 14.14775673,
        "meta_eccentricity": 0.00117812,
        "meta_inclination": 98.8846,
        "meta_ra_of_asc_node": 333.19,
        "meta_arg_of_pericenter": 36.0911,
        "meta_mean_anomaly": 324.1055,
        "meta_ephemeris_type": 0,
        "meta_classification_type": "U",
        "meta_norad_cat_id": 35951,
        "meta_element_set_no": 999,
        "meta_rev_at_epoch": 83465,
        "meta_bstar": 0.00016105884,
        "meta_mean_motion_dot": 2.66e-06,
        "meta_mean_motion_ddot": 0,
        "tle_line1": "1 35951U 09057A   25356.83925633  .00000266  00000+0  16106-3 0  9994",
        "tle_line2": "2 35951  98.8846 333.1900 0011781  36.0911 324.1055 14.14775673834656"
      },
      "geometry": {
        "type": "Point",
        "coordinates": [
          -96.47064301079452,
          80.55103095503972
        ]
      }
    },
    {
      "type": "Feature",
      "properties": {
        "norad_id": 36411,
        "name": "EWS-G2 (GOES 15)",
        "group": "weather",
        "lat": 0.49113378140833874,
        "lon": -131.13003438391303,
        "alt_km": 35767.22217901281,
        "timestamp": "2025-12-23T05:02:11.666615+00:00",
        "meta_object_name": "EWS-G2 (GOES 15)",
        "meta_object_id": "2010-008A",
        "meta_epoch": "2025-12-22T22:00:56.074752",
        "meta_mean_motion": 1.00271099,
        "meta_eccentricity": 0.00055033,
        "meta_inclination": 0.8373,
        "meta_ra_of_asc_node": 86.0744,
        "meta_arg_of_pericenter": 178.2461,
        "meta_mean_anomaly": 218.9862,
        "meta_ephemeris_type": 0,
        "meta_classification_type": "U",
        "meta_norad_cat_id": 36411,
        "meta_element_set_no": 999,
        "meta_rev_at_epoch": 5787,
        "meta_bstar": 0,
        "meta_mean_motion_dot": 5.9e-07,
        "meta_mean_motion_ddot": 0,
        "tle_line1": "1 36411U 10008A   25356.91731568  .00000059  00000+0  00000+0 0  9997",
        "tle_line2": "2 36411   0.8373  86.0744 0005503 178.2461 218.9862  1.00271099 57871"
      },
      "geometry": {
        "type": "Point",
        "coordinates": [
          -131.13003438391303,
          0.49113378140833874
        ]
      }
    }
  ]
}